{
  "type": "FeatureCollection",
  "features": [
    {
      "type": "Feature",
      "properties": {
        "norad_id": 54741,
        "name": "GALAXY 35 (G-35)",
        "group": "intelsat",
        "lat": 0.025070957856403352,
        "lon": 115.29538948495654,
        "alt_km": 35794.83695211822,
        "timestamp": "2025-12-23T07:45:09.064694+00:00",
        "meta_object_name": "GALAXY 35 (G-35)",
        "meta_object_id": "2022-170A",
        "meta_epoch": "2025-12-22T21:16:52.794624",
        "meta_mean_motion": 1.00271625,
        "meta_eccentricity": 0.00021976,
        "meta_inclination": 0.0216,
        "meta_ra_of_asc_node": 86.6733,
        "meta_arg_of_pericenter": 187.6456,
        "meta_mean_anomaly": 43.4947,
        "meta_ephemeris_type": 0,
        "meta_classification_type": "U",
        "meta_norad_cat_id": 54741,
        "meta_element_set_no": 999,
        "meta_rev_at_epoch": 1112,
        "meta_bstar": 0,
        "meta_mean_motion_dot": -1.41e-06,
        "meta_mean_motion_ddot": 0,
        "tle_line1": "1 54741U 22170A   25356.88672216 -.00000141  00000+0  00000+0 0  9999",
        "tle_line2": "2 54741   0.0216  86.6733 0002197 187.6456  43.4947  1.00271625 11121"
      },
      "geometry": {
        "type": "Point",
        "coordinates": [
          115.29538948495654,
          0.025070957856403352
        ]
      }
    },
    {
      "type": "Feature",
      "properties": {
        "norad_id": 54742,
        "name": "GALAXY 36 (G-36)",
        "group": "intelsat",
        "lat": 0.03582013099721826,
        "lon": 119.38841467394238,
        "alt_km": 35788.404275867346,
        "timestamp": "2025-12-23T07:45:09.064706+00:00",
        "meta_object_name": "GALAXY 36 (G-36)",
        "meta_object_id": "2022-170B",
        "meta_epoch": "2025-12-22T21:18:07.674912",
        "meta_mean_motion": 1.00268471,
        "meta_eccentricity": 4.487e-05,
        "meta_inclination": 0.0161,
        "meta_ra_of_asc_node": 47.846,
        "meta_arg_of_pericenter": 294.9484,
        "meta_mean_anomaly": 339.4175,
        "meta_ephemeris_type": 0,
        "meta_classification_type": "U",
        "meta_norad_cat_id": 54742,
        "meta_element_set_no": 999,
        "meta_rev_at_epoch": 1100,
        "meta_bstar": 0,
        "meta_mean_motion_dot": 0,
        "meta_mean_motion_ddot": 0,
        "tle_line1": "1 54742U 22170B   25356.88758883  .00000000  00000+0  00000+0 0  9998",
        "tle_line2": "2 54742   0.0161  47.8460 0000448 294.9484 339.4175  1.00268471 11000"
      },
      "geometry": {
        "type": "Point",
        "coordinates": [
          119.38841467394238,
          0.03582013099721826
        ]
      }
    },
    {
      "type": "Feature",
      "properties": {
        "norad_id": 57493,
        "name": "GALAXY 37 (G-37)",
        "group": "intelsat",
        "lat": 0.03741804057948075,
        "lon": 81.39227529908936,
        "alt_km": 35794.29692696247,
        "timestamp": "2025-12-23T07:45:09.064717+00:00",
        "meta_object_name": "GALAXY 37 (G-37)",
        "meta_object_id": "2023-112A",
        "meta_epoch": "2025-12-22T17:41:50.884800",
        "meta_mean_motion": 1.00271316,
        "meta_eccentricity": 0.00019795,
        "meta_inclination": 0.0146,
        "meta_ra_of_asc_node": 349.5119,
        "meta_arg_of_pericenter": 286.0487,
        "meta_mean_anomaly": 314.4307,
        "meta_ephemeris_type": 0,
        "meta_classification_type": "U",
        "meta_norad_cat_id": 57493,
        "meta_element_set_no": 999,
        "meta_rev_at_epoch": 877,
        "meta_bstar": 0,
        "meta_mean_motion_dot": 7e-07,
        "meta_mean_motion_ddot": 0,
        "tle_line1": "1 57493U 23112A   25356.73739450  .00000070  00000+0  00000+0 0  9991",
        "tle_line2": "2 57493   0.0146 349.5119 0001979 286.0487 314.4307  1.00271316  8779"
      },
      "geometry": {
        "type": "Point",
        "coordinates": [
          81.39227529908936,
          0.03741804057948075
        ]
      }
    }
  ]
}